{
  "norad_id": 62810,
  "name": "STARLINK-32851",
  "history": [
    {
      "epoch": "2026-03-28T20:31:58.546272Z",
      "apogee_km": 476.1326749625514,
      "perigee_km": 474.221970929314,
      "latitude_deg": 1.1237503769142453e-07,
      "longitude_deg": 86.24886392329502,
      "height_km": 475.33794505093215,
      "semi_major_axis_km": 6853.314322945933,
      "eccentricity": 0.0001394,
      "inclination_deg": 53.1576,
      "raan_deg": 220.5128,
      "arg_perigee_deg": 39.4474,
      "mean_anomaly_deg": 320.6628,
      "mean_motion_rev_day": 15.30212642
    },
    {
      "epoch": "2026-03-30T14:51:25.125984Z",
      "apogee_km": 476.1818953323791,
      "perigee_km": 474.31612952435535,
      "latitude_deg": 3.4792839636416053e-05,
      "longitude_deg": 161.456855164027,
      "height_km": 476.1830738876774,
      "semi_major_axis_km": 6853.3860124283665,
      "eccentricity": 0.00013612,
      "inclination_deg": 53.1584,
      "raan_deg": 212.3197,
      "arg_perigee_deg": 92.2296,
      "mean_anomaly_deg": 267.8861,
      "mean_motion_rev_day": 15.30188632
    },
    {
      "epoch": "2026-03-31T08:06:02.432160Z",
      "apogee_km": 475.86385609337503,
      "perigee_km": 474.77004484288136,
      "latitude_deg": 4.410094520039048e-05,
      "longitude_deg": -101.24315282553079,
      "height_km": 475.78767488072964,
      "semi_major_axis_km": 6853.453950468128,
      "eccentricity": 7.98e-05,
      "inclination_deg": 53.1597,
      "raan_deg": 208.9833,
      "arg_perigee_deg": 38.4471,
      "mean_anomaly_deg": 321.6587,
      "mean_motion_rev_day": 15.30165879
    },
    {
      "epoch": "2026-04-01T13:53:01.178304Z",
      "apogee_km": 476.015973741627,
      "perigee_km": 474.01074194692137,
      "latitude_deg": -1.6577756247046035e-05,
      "longitude_deg": 165.02538427616207,
      "height_km": 476.2223317207411,
      "semi_major_axis_km": 6853.150357844274,
      "eccentricity": 0.0001463,
      "inclination_deg": 53.1599,
      "raan_deg": 203.2198,
      "arg_perigee_deg": 108.0738,
      "mean_anomaly_deg": 252.0422,
      "mean_motion_rev_day": 15.30267559
    },
    {
      "epoch": "2026-04-02T13:23:48.819552Z",
      "apogee_km": 476.25504503451884,
      "perigee_km": 474.0149845437645,
      "latitude_deg": -1.6054979164453006e-05,
      "longitude_deg": 166.81002618114445,
      "height_km": 475.5994936620639,
      "semi_major_axis_km": 6853.272014789141,
      "eccentricity": 0.00016343,
      "inclination_deg": 53.1604,
      "raan_deg": 198.6686,
      "arg_perigee_deg": 292.9614,
      "mean_anomaly_deg": 67.1214,
      "mean_motion_rev_day": 15.30226812
    },
    {
      "epoch": "2026-04-03T12:54:36.802944Z",
      "apogee_km": 476.4599179017132,
      "perigee_km": 474.25048908515055,
      "latitude_deg": -8.297948533904596e-06,
      "longitude_deg": 168.5953433312066,
      "height_km": 476.01710996496047,
      "semi_major_axis_km": 6853.492203493432,
      "eccentricity": 0.00016119,
      "inclination_deg": 53.1611,
      "raan_deg": 194.1195,
      "arg_perigee_deg": 77.6728,
      "mean_anomaly_deg": 282.4453,
      "mean_motion_rev_day": 15.30153068
    },
    {
      "epoch": "2026-04-04T15:33:31.766112Z",
      "apogee_km": 476.29338092676153,
      "perigee_km": 473.86186037935386,
      "latitude_deg": -3.0203487374624733e-05,
      "longitude_deg": 122.61469400948364,
      "height_km": 475.32556390425884,
      "semi_major_axis_km": 6853.214620653057,
      "eccentricity": 0.0001774,
      "inclination_deg": 53.1595,
      "raan_deg": 188.9623,
      "arg_perigee_deg": 57.6916,
      "mean_anomaly_deg": 302.4256,
      "mean_motion_rev_day": 15.30246035
    },
    {
      "epoch": "2026-04-05T13:30:16.130016Z",
      "apogee_km": 476.464432413316,
      "perigee_km": 473.7617847005049,
      "latitude_deg": -9.242571070928158e-06,
      "longitude_deg": 148.28348259158065,
      "height_km": 475.24855191579815,
      "semi_major_axis_km": 6853.25010855691,
      "eccentricity": 0.00019718,
      "inclination_deg": 53.1592,
      "raan_deg": 184.7172,
      "arg_perigee_deg": 55.6708,
      "mean_anomaly_deg": 304.4479,
      "mean_motion_rev_day": 15.30234149
    },
    {
      "epoch": "2026-04-05T15:04:19.162848Z",
      "apogee_km": 476.4535182254731,
      "perigee_km": 473.7273043612604,
      "latitude_deg": -5.421153721930174e-05,
      "longitude_deg": 124.40293685781168,
      "height_km": 475.2273711205006,
      "semi_major_axis_km": 6853.2274112933665,
      "eccentricity": 0.0001989,
      "inclination_deg": 53.1592,
      "raan_deg": 184.4137,
      "arg_perigee_deg": 56.0863,
      "mean_anomaly_deg": 304.0326,
      "mean_motion_rev_day": 15.30241751
    },
    {
      "epoch": "2026-04-06T05:10:48.303840Z",
      "apogee_km": 477.53954409727976,
      "perigee_km": 472.86008572005994,
      "latitude_deg": -1.5610539620528655e-05,
      "longitude_deg": -90.5289552462259,
      "height_km": 475.6665541391607,
      "semi_major_axis_km": 6853.33681490867,
      "eccentricity": 0.0003414,
      "inclination_deg": 53.1586,
      "raan_deg": 181.6826,
      "arg_perigee_deg": 79.4587,
      "mean_anomaly_deg": 280.6798,
      "mean_motion_rev_day": 15.30205109
    },
    {
      "epoch": "2026-04-07T14:05:55.457088Z",
      "apogee_km": 476.34719441316065,
      "perigee_km": 474.19248330302344,
      "latitude_deg": -4.1364987207013936e-05,
      "longitude_deg": 127.967595627455,
      "height_km": 475.7210729977913,
      "semi_major_axis_km": 6853.406838858092,
      "eccentricity": 0.0001572,
      "inclination_deg": 53.1579,
      "raan_deg": 175.3109,
      "arg_perigee_deg": 65.5217,
      "mean_anomaly_deg": 294.5947,
      "mean_motion_rev_day": 15.30181657
    },
    {
      "epoch": "2026-04-07T15:39:58.514976Z",
      "apogee_km": 476.1126286178787,
      "perigee_km": 474.35268329023074,
      "latitude_deg": -1.1091208279118156e-05,
      "longitude_deg": 104.08750119509477,
      "height_km": 475.93599051713517,
      "semi_major_axis_km": 6853.369655954055,
      "eccentricity": 0.0001284,
      "inclination_deg": 53.1583,
      "raan_deg": 175.0079,
      "arg_perigee_deg": 77.2248,
      "mean_anomaly_deg": 282.8896,
      "mean_motion_rev_day": 15.3019411
    },
    {
      "epoch": "2026-04-08T12:02:40.158816Z",
      "apogee_km": 476.2336659543471,
      "perigee_km": 474.17807429388085,
      "latitude_deg": 4.048582861135359e-05,
      "longitude_deg": 153.63041670872028,
      "height_km": 475.74248392635286,
      "semi_major_axis_km": 6853.342870124114,
      "eccentricity": 0.00014997,
      "inclination_deg": 53.1576,
      "raan_deg": 171.0612,
      "arg_perigee_deg": 69.4358,
      "mean_anomaly_deg": 290.6804,
      "mean_motion_rev_day": 15.30203081
    },
    {
      "epoch": "2026-04-09T11:33:27.973728Z",
      "apogee_km": 476.15632068545983,
      "perigee_km": 474.257396169166,
      "latitude_deg": 4.76532339518479e-05,
      "longitude_deg": 155.4167341337973,
      "height_km": 475.92095594411677,
      "semi_major_axis_km": 6853.343858427313,
      "eccentricity": 0.00013854,
      "inclination_deg": 53.1584,
      "raan_deg": 166.5124,
      "arg_perigee_deg": 78.8454,
      "mean_anomaly_deg": 281.2703,
      "mean_motion_rev_day": 15.3020275
    },
    {
      "epoch": "2026-04-10T04:48:03.104352Z",
      "apogee_km": 476.1984233929188,
      "perigee_km": 474.19560506060225,
      "latitude_deg": 4.778839876798045e-05,
      "longitude_deg": -107.27429396877776,
      "height_km": 476.1895136728973,
      "semi_major_axis_km": 6853.334014226761,
      "eccentricity": 0.00014612,
      "inclination_deg": 53.1578,
      "raan_deg": 163.1759,
      "arg_perigee_deg": 95.4392,
      "mean_anomaly_deg": 264.6776,
      "mean_motion_rev_day": 15.30206047
    },
    {
      "epoch": "2026-04-11T13:43:10.017408Z",
      "apogee_km": 476.00177307557897,
      "perigee_km": 474.42139089257216,
      "latitude_deg": 2.0512171209344285e-05,
      "longitude_deg": 111.22236018104391,
      "height_km": 476.1386401505914,
      "semi_major_axis_km": 6853.348581984075,
      "eccentricity": 0.0001153,
      "inclination_deg": 53.1586,
      "raan_deg": 156.8033,
      "arg_perigee_deg": 92.1015,
      "mean_anomaly_deg": 268.0118,
      "mean_motion_rev_day": 15.30201168
    },
    {
      "epoch": "2026-04-13T03:20:28.907808Z",
      "apogee_km": 476.930992359642,
      "perigee_km": 473.5472064443229,
      "latitude_deg": -1.0437790192813506e-06,
      "longitude_deg": -101.93434408057932,
      "height_km": 476.2453865908201,
      "semi_major_axis_km": 6853.376099401982,
      "eccentricity": 0.00024687,
      "inclination_deg": 53.158,
      "raan_deg": 149.5204,
      "arg_perigee_deg": 93.7334,
      "mean_anomaly_deg": 266.3949,
      "mean_motion_rev_day": 15.30191952
    },
    {
      "epoch": "2026-04-14T20:00:01.999008Z",
      "apogee_km": 476.07548351943296,
      "perigee_km": 474.24702354539113,
      "latitude_deg": -17.752736096953182,
      "longitude_deg": -15.159733927762977,
      "height_km": 480.0345233646576,
      "semi_major_axis_km": 6853.298253532412,
      "eccentricity": 0.0001334,
      "inclination_deg": 53.1588,
      "raan_deg": 141.6531,
      "arg_perigee_deg": 69.522,
      "mean_anomaly_deg": 268.3211,
      "mean_motion_rev_day": 15.30218024
    },
    {
      "epoch": "2026-04-15T19:36:38.495808Z",
      "apogee_km": 477.0426890398512,
      "perigee_km": 473.2432306301189,
      "latitude_deg": -1.7234672415006445e-05,
      "longitude_deg": -1.0512500858019427,
      "height_km": 475.9798739124398,
      "semi_major_axis_km": 6853.279959834985,
      "eccentricity": 0.0002772,
      "inclination_deg": 53.1604,
      "raan_deg": 137.0829,
      "arg_perigee_deg": 88.2201,
      "mean_anomaly_deg": 271.9117,
      "mean_motion_rev_day": 15.30224151
    }
  ]
}